start=new Date('2021-12-03T00:00:00.000Z').valueOf();
sats=[{"BSTAR":"0.00003525500000","GP_ID":"190942260","TLE_LINE1":"1 45572U 20025AT  21336.40684749  .00000243  00000-0  35255-4 0  9992","REV_AT_EPOCH":"9064","SITE":"AFETR","SEMIMAJOR_AXIS":"6925.377","EPOCH":"2021-12-02T09:45:51.623136","MEAN_MOTION_DOT":"0.00000243","OBJECT_TYPE":"PAYLOAD","ECCENTRICITY":"0.00022430","CLASSIFICATION_TYPE":"U","MEAN_ANOMALY":"289.4509","COUNTRY_CODE":"US","PERIOD":"95.593","DECAY_DATE":null,"LAUNCH_DATE":"2020-04-22","MEAN_ELEMENT_THEORY":"SGP4","TLE_LINE2":"2 45572  53.0549 232.0338 0002243  70.6722 289.4509 15.06390700 90644","RCS_SIZE":"LARGE","ARG_OF_PERICENTER":"70.6722","ELEMENT_SET_NO":"999","PERIAPSIS":"545.689","RA_OF_ASC_NODE":"232.0338","MEAN_MOTION":"15.06390700","OBJECT_NAME":"STARLINK-1320","NORAD_CAT_ID":"45572","REF_FRAME":"TEME","OBJECT_ID":"2020-025AT","EPHEMERIS_TYPE":"0","APOAPSIS":"548.795","MEAN_MOTION_DDOT":"0.0000000000000","INCLINATION":"53.0549","TIME_SYSTEM":"UTC","CENTER_NAME":"EARTH","FILE":"3230859"},{"MEAN_ANOMALY":"291.9777","DECAY_DATE":null,"COUNTRY_CODE":"US","PERIOD":"95.593","ECCENTRICITY":"0.00020230","CLASSIFICATION_TYPE":"U","REV_AT_EPOCH":"9034","SITE":"AFETR","SEMIMAJOR_AXIS":"6925.378","EPOCH":"2021-12-02T10:49:32.988000","MEAN_MOTION_DOT":"0.00000149","OBJECT_TYPE":"PAYLOAD","BSTAR":"0.00002893500000","GP_ID":"190942510","TLE_LINE1":"1 45573U 20025AU  21336.45107625  .00000149  00000-0  28935-4 0  9993","TIME_SYSTEM":"UTC","MEAN_MOTION_DDOT":"0.0000000000000","INCLINATION":"53.0542","FILE":"3230859","CENTER_NAME":"EARTH","APOAPSIS":"548.644","EPHEMERIS_TYPE":"0","NORAD_CAT_ID":"45573","OBJECT_NAME":"STARLINK-1321","REF_FRAME":"TEME","RA_OF_ASC_NODE":"231.8276","MEAN_MOTION":"15.06390552","OBJECT_ID":"2020-025AU","LAUNCH_DATE":"2020-04-22","MEAN_ELEMENT_THEORY":"SGP4","ELEMENT_SET_NO":"999","ARG_OF_PERICENTER":"68.1427","PERIAPSIS":"545.842","TLE_LINE2":"2 45573  53.0542 231.8276 0002023  68.1427 291.9777 15.06390552 90343","RCS_SIZE":"LARGE"},{"FILE":"3230932","CENTER_NAME":"EARTH","TIME_SYSTEM":"UTC","MEAN_MOTION_DDOT":"0.0000000000000","INCLINATION":"53.0549","APOAPSIS":"548.522","EPHEMERIS_TYPE":"0","OBJECT_ID":"2020-025AV","REF_FRAME":"TEME","NORAD_CAT_ID":"45574","OBJECT_NAME":"STARLINK-1324","RA_OF_ASC_NODE":"230.8219","MEAN_MOTION":"15.06393589","PERIAPSIS":"545.944","ARG_OF_PERICENTER":"68.8489","ELEMENT_SET_NO":"999","RCS_SIZE":"LARGE","TLE_LINE2":"2 45574  53.0549 230.8219 0001861  68.8489 291.2698 15.06393589 90080","LAUNCH_DATE":"2020-04-22","MEAN_ELEMENT_THEORY":"SGP4","DECAY_DATE":null,"PERIOD":"95.593","COUNTRY_CODE":"US","MEAN_ANOMALY":"291.2698","ECCENTRICITY":"0.00018610","CLASSIFICATION_TYPE":"U","OBJECT_TYPE":"PAYLOAD","MEAN_MOTION_DOT":"0.00000725","SEMIMAJOR_AXIS":"6925.368","EPOCH":"2021-12-02T16:13:19.310880","SITE":"AFETR","REV_AT_EPOCH":"9008","TLE_LINE1":"1 45574U 20025AV  21336.67591795  .00000725  00000-0  67597-4 0  9990","GP_ID":"190948014","BSTAR":"0.00006759700000"},{"RCS_SIZE":"LARGE","TLE_LINE2":"2 45575  53.0009 228.8486 0002005  87.2213 272.9006 15.08691175 90652","PERIAPSIS":"538.813","ELEMENT_SET_NO":"999","ARG_OF_PERICENTER":"87.2213","LAUNCH_DATE":"2020-04-22","MEAN_ELEMENT_THEORY":"SGP4","OBJECT_ID":"2020-025AW","RA_OF_ASC_NODE":"228.8486","MEAN_MOTION":"15.08691175","REF_FRAME":"TEME","NORAD_CAT_ID":"45575","OBJECT_NAME":"STARLINK-1326","EPHEMERIS_TYPE":"0","APOAPSIS":"541.587","CENTER_NAME":"EARTH","FILE":"3230859","MEAN_MOTION_DDOT":"0.0000000000000","INCLINATION":"53.0009","TIME_SYSTEM":"UTC","TLE_LINE1":"1 45575U 20025AW  21336.18561561  .00007398  00000-0  48433-3 0  9995","GP_ID":"190943012","BSTAR":"0.00048433000000","OBJECT_TYPE":"PAYLOAD","SEMIMAJOR_AXIS":"6918.335","EPOCH":"2021-12-02T04:27:17.188704","MEAN_MOTION_DOT":"0.00007398","REV_AT_EPOCH":"9065","SITE":"AFETR","ECCENTRICITY":"0.00020050","CLASSIFICATION_TYPE":"U","PERIOD":"95.447","COUNTRY_CODE":"US","DECAY_DATE":null,"MEAN_ANOMALY":"272.9006"},{"RA_OF_ASC_NODE":"230.6983","MEAN_MOTION":"15.06395377","OBJECT_NAME":"STARLINK-1328","NORAD_CAT_ID":"45576","REF_FRAME":"TEME","OBJECT_ID":"2020-025AX","MEAN_ELEMENT_THEORY":"SGP4","LAUNCH_DATE":"2020-04-22","TLE_LINE2":"2 45576  53.0529 230.6983 0002005  71.2399 288.8807 15.06395377 90086","RCS_SIZE":"LARGE","ARG_OF_PERICENTER":"71.2399","ELEMENT_SET_NO":"999","PERIAPSIS":"545.839","INCLINATION":"53.0529","MEAN_MOTION_DDOT":"0.0000000000000","TIME_SYSTEM":"UTC","CENTER_NAME":"EARTH","FILE":"3230953","EPHEMERIS_TYPE":"0","APOAPSIS":"548.616","SITE":"AFETR","REV_AT_EPOCH":"9008","EPOCH":"2021-12-02T16:50:28.371264","SEMIMAJOR_AXIS":"6925.363","MEAN_MOTION_DOT":"0.00000913","OBJECT_TYPE":"PAYLOAD","BSTAR":"0.00008017300000","GP_ID":"190947684","TLE_LINE1":"1 45576U 20025AX  21336.70171726  .00000913  00000-0  80173-4 0  9998","MEAN_ANOMALY":"288.8807","COUNTRY_CODE":"US","PERIOD":"95.592","DECAY_DATE":null,"ECCENTRICITY":"0.00020050","CLASSIFICATION_TYPE":"U"},{"EPOCH":"2021-12-02T03:02:27.565152","SEMIMAJOR_AXIS":"6925.356","MEAN_MOTION_DOT":"0.00000262","SITE":"AFETR","REV_AT_EPOCH":"9059","OBJECT_TYPE":"PAYLOAD","BSTAR":"0.00003649900000","TLE_LINE1":"1 45577U 20025AY  21336.12670793  .00000262  00000-0  36499-4 0  9992","GP_ID":"190942010","MEAN_ANOMALY":"295.8539","DECAY_DATE":null,"PERIOD":"95.592","COUNTRY_CODE":"US","CLASSIFICATION_TYPE":"U","ECCENTRICITY":"0.00021470","REF_FRAME":"TEME","NORAD_CAT_ID":"45577","OBJECT_NAME":"STARLINK-1330","MEAN_MOTION":"15.06397617","RA_OF_ASC_NODE":"233.2858","OBJECT_ID":"2020-025AY","LAUNCH_DATE":"2020-04-22","MEAN_ELEMENT_THEORY":"SGP4","PERIAPSIS":"545.734","ARG_OF_PERICENTER":"64.2672","ELEMENT_SET_NO":"999","RCS_SIZE":"LARGE","TLE_LINE2":"2 45577  53.0531 233.2858 0002147  64.2672 295.8539 15.06397617 90598","TIME_SYSTEM":"UTC","MEAN_MOTION_DDOT":"0.0000000000000","INCLINATION":"53.0531","FILE":"3230859","CENTER_NAME":"EARTH","APOAPSIS":"548.708","EPHEMERIS_TYPE":"0"},{"BSTAR":"0.00005650800000","GP_ID":"190942762","TLE_LINE1":"1 45578U 20025AZ  21336.42896526  .00000560  00000-0  56508-4 0  9994","SITE":"AFETR","REV_AT_EPOCH":"9065","MEAN_MOTION_DOT":"0.00000560","SEMIMAJOR_AXIS":"6925.380","EPOCH":"2021-12-02T10:17:42.598464","OBJECT_TYPE":"PAYLOAD","CLASSIFICATION_TYPE":"U","ECCENTRICITY":"0.00019880","MEAN_ANOMALY":"289.8586","COUNTRY_CODE":"US","PERIOD":"95.593","DECAY_DATE":null,"MEAN_ELEMENT_THEORY":"SGP4","LAUNCH_DATE":"2020-04-22","TLE_LINE2":"2 45578  53.0548 231.9334 0001988  70.2617 289.8586 15.06389853 90654","RCS_SIZE":"LARGE","ELEMENT_SET_NO":"999","ARG_OF_PERICENTER":"70.2617","PERIAPSIS":"545.868","RA_OF_ASC_NODE":"231.9334","MEAN_MOTION":"15.06389853","NORAD_CAT_ID":"45578","OBJECT_NAME":"STARLINK-1331","REF_FRAME":"TEME","OBJECT_ID":"2020-025AZ","EPHEMERIS_TYPE":"0","APOAPSIS":"548.621","MEAN_MOTION_DDOT":"0.0000000000000","INCLINATION":"53.0548","TIME_SYSTEM":"UTC","CENTER_NAME":"EARTH","FILE":"3230859"},{"OBJECT_ID":"2020-025BA","OBJECT_NAME":"STARLINK-1332","NORAD_CAT_ID":"45579","REF_FRAME":"TEME","MEAN_MOTION":"15.06396840","RA_OF_ASC_NODE":"193.7455","ELEMENT_SET_NO":"999","ARG_OF_PERICENTER":"80.4663","PERIAPSIS":"543.211","TLE_LINE2":"2 45579  53.0532 193.7455 0005793  80.4663 279.6980 15.06396840 91143","RCS_SIZE":"LARGE","LAUNCH_DATE":"2020-04-22","MEAN_ELEMENT_THEORY":"SGP4","FILE":"3230859","CENTER_NAME":"EARTH","TIME_SYSTEM":"UTC","MEAN_MOTION_DDOT":"0.0000000000000","INCLINATION":"53.0532","APOAPSIS":"551.235","EPHEMERIS_TYPE":"0","OBJECT_TYPE":"PAYLOAD","SITE":"AFETR","REV_AT_EPOCH":"9114","EPOCH":"2021-12-02T00:32:30.549984","SEMIMAJOR_AXIS":"6925.358","MEAN_MOTION_DOT":"-0.00000086","GP_ID":"190943513","TLE_LINE1":"1 45579U 20025BA  21336.02257581 -.00000086  00000-0  13233-4 0  9995","BSTAR":"0.00001323300000","DECAY_DATE":null,"COUNTRY_CODE":"US","PERIOD":"95.592","MEAN_ANOMALY":"279.6980","CLASSIFICATION_TYPE":"U","ECCENTRICITY":"0.00057930"},{"FILE":"3230859","CENTER_NAME":"EARTH","TIME_SYSTEM":"UTC","MEAN_MOTION_DDOT":"0.0000000000000","INCLINATION":"53.0534","APOAPSIS":"549.138","EPHEMERIS_TYPE":"0","OBJECT_ID":"2020-025BB","REF_FRAME":"TEME","NORAD_CAT_ID":"45580","OBJECT_NAME":"STARLINK-1333","MEAN_MOTION":"15.06396200","RA_OF_ASC_NODE":"241.8927","PERIAPSIS":"545.312","ARG_OF_PERICENTER":"61.9114","ELEMENT_SET_NO":"999","RCS_SIZE":"LARGE","TLE_LINE2":"2 45580  53.0534 241.8927 0002762  61.9114 298.2154 15.06396200 90503","MEAN_ELEMENT_THEORY":"SGP4","LAUNCH_DATE":"2020-04-22","DECAY_DATE":null,"PERIOD":"95.592","COUNTRY_CODE":"US","MEAN_ANOMALY":"298.2154","ECCENTRICITY":"0.00027620","CLASSIFICATION_TYPE":"U","OBJECT_TYPE":"PAYLOAD","EPOCH":"2021-12-02T10:26:58.965216","SEMIMAJOR_AXIS":"6925.360","MEAN_MOTION_DOT":"0.00000462","SITE":"AFETR","REV_AT_EPOCH":"9050","TLE_LINE1":"1 45580U 20025BB  21336.43540469  .00000462  00000-0  49969-4 0  9994","GP_ID":"190942261","BSTAR":"0.00004996900000"},{"CLASSIFICATION_TYPE":"U","ECCENTRICITY":"0.00019570","PERIOD":"95.592","COUNTRY_CODE":"US","DECAY_DATE":null,"MEAN_ANOMALY":"284.0018","TLE_LINE1":"1 45581U 20025BC  21336.70539999  .00000741  00000-0  68678-4 0  9999","GP_ID":"190948382","BSTAR":"0.00006867800000","OBJECT_TYPE":"PAYLOAD","EPOCH":"2021-12-02T16:55:46.559136","SEMIMAJOR_AXIS":"6925.352","MEAN_MOTION_DOT":"0.00000741","REV_AT_EPOCH":"9008","SITE":"AFETR","EPHEMERIS_TYPE":"0","APOAPSIS":"548.573","CENTER_NAME":"EARTH","FILE":"3230961","MEAN_MOTION_DDOT":"0.0000000000000","INCLINATION":"53.0539","TIME_SYSTEM":"UTC","RCS_SIZE":"LARGE","TLE_LINE2":"2 45581  53.0539 230.6850 0001957  76.1189 284.0018 15.06398748 90089","PERIAPSIS":"545.862","ELEMENT_SET_NO":"999","ARG_OF_PERICENTER":"76.1189","MEAN_ELEMENT_THEORY":"SGP4","LAUNCH_DATE":"2020-04-22","OBJECT_ID":"2020-025BC","MEAN_MOTION":"15.06398748","RA_OF_ASC_NODE":"230.6850","REF_FRAME":"TEME","OBJECT_NAME":"STARLINK-1335","NORAD_CAT_ID":"45581"}];
